{
  "type": "FeatureCollection",
  "features": [
    {
      "type": "Feature",
      "properties": {
        "norad_id": 36744,
        "name": "COMS 1",
        "group": "weather",
        "lat": 4.058422497587604,
        "lon": 145.56676687216608,
        "alt_km": 35788.5238155007,
        "timestamp": "2025-12-23T18:59:31.636714+00:00",
        "meta_object_name": "COMS 1",
        "meta_object_id": "2010-032A",
        "meta_epoch": "2025-12-22T21:34:51.646368",
        "meta_mean_motion": 1.00271059,
        "meta_eccentricity": 7.731e-05,
        "meta_inclination": 4.3632,
        "meta_ra_of_asc_node": 77.8837,
        "meta_arg_of_pericenter": 211.4503,
        "meta_mean_anomaly": 254.2562,
        "meta_ephemeris_type": 0,
        "meta_classification_type": "U",
        "meta_norad_cat_id": 36744,
        "meta_element_set_no": 999,
        "meta_rev_at_epoch": 4932,
        "meta_bstar": 0,
        "meta_mean_motion_dot": -3.25e-06,
        "meta_mean_motion_ddot": 0,
        "tle_line1": "1 36744U 10032A   25356.89920887 -.00000325  00000+0  00000+0 0  9991",
        "tle_line2": "2 36744   4.3632  77.8837 0000773 211.4503 254.2562  1.00271059 49326"
      },
      "geometry": {
        "type": "Point",
        "coordinates": [
          145.56676687216608,
          4.058422497587604
        ]
      }
    },
    {
      "type": "Feature",
      "properties": {
        "norad_id": 37214,
        "name": "FENGYUN 3B",
        "group": "weather",
        "lat": 47.078667815087336,
        "lon": -132.35487598062818,
        "alt_km": 853.9119989327546,
        "timestamp": "2025-12-23T18:59:31.636725+00:00",
        "meta_object_name": "FENGYUN 3B",
        "meta_object_id": "2010-059A",
        "meta_epoch": "2025-12-23T07:07:48.334080",
        "meta_mean_motion": 14.14791632,
        "meta_eccentricity": 0.00215695,
        "meta_inclination": 98.9889,
        "meta_ra_of_asc_node": 37.3476,
        "meta_arg_of_pericenter": 327.629,
        "meta_mean_anomaly": 168.4414,
        "meta_ephemeris_type": 0,
        "meta_classification_type": "U",
        "meta_norad_cat_id": 37214,
        "meta_element_set_no": 999,
        "meta_rev_at_epoch": 78255,
        "meta_bstar": -2.953913e-06,
        "meta_mean_motion_dot": -5.1e-07,
        "meta_mean_motion_ddot": 0,
        "tle_line1": "1 37214U 10059A   25357.29708720 -.00000051  00000+0 -29539-5 0  9999",
        "tle_line2": "2 37214  98.9889  37.3476 0021569 327.6290 168.4414 14.14791632782555"
      },
      "geometry": {
        "type": "Point",
        "coordinates": [
          -132.35487598062818,
          47.078667815087336
        ]
      }
    },
    {
      "type": "Feature",
      "properties": {
        "norad_id": 37849,
        "name": "SUOMI NPP",
        "group": "weather",
        "lat": 19.29315398299278,
        "lon": 118.13473089030268,
        "alt_km": 826.2125582367253,
        "timestamp": "2025-12-23T18:59:31.636735+00:00",
        "meta_object_name": "SUOMI NPP",
        "meta_object_id": "2011-061A",
        "meta_epoch": "2025-12-22T15:10:21.732672",
        "meta_mean_motion": 14.19516903,
        "meta_eccentricity": 0.00024883,
        "meta_inclination": 98.7787,
        "meta_ra_of_asc_node": 293.8852,
        "meta_arg_of_pericenter": 103.0781,
        "meta_mean_anomaly": 257.0673,
        "meta_ephemeris_type": 0,
        "meta_classification_type": "U",
        "meta_norad_cat_id": 37849,
        "meta_element_set_no": 999,
        "meta_rev_at_epoch": 73339,
        "meta_bstar": 6.3406935e-05,
        "meta_mean_motion_dot": 8.9e-07,
        "meta_mean_motion_ddot": 0,
        "tle_line1": "1 37849U 11061A   25356.63219598  .00000089  00000+0  63407-4 0  9994",
        "tle_line2": "2 37849  98.7787 293.8852 0002488 103.0781 257.0673 14.19516903733392"
      },
      "geometry": {
        "type": "Point",
        "coordinates": [
          118.13473089030268,
          19.29315398299278
        ]
      }
    },
    {
      "type": "Feature",
      "properties": {
        "norad_id": 38552,
        "name": "METEOSAT-10 (MSG-3)",
        "group": "weather",
        "lat": -2.9473131400755466,
        "lon": 17.891573717402384,
        "alt_km": 35783.12339453626,
        "timestamp": "2025-12-23T18:59:31.636746+00:00",
        "meta_object_name": "METEOSAT-10 (MSG-3)",
        "meta_object_id": "2012-035B",
        "meta_epoch": "2025-12-23T01:08:58.915968",
        "meta_mean_motion": 1.0027689,
        "meta_eccentricity": 7.313e-05,
        "meta_inclination": 4.2513,
        "meta_ra_of_asc_node": 61.6947,
        "meta_arg_of_pericenter": 264.0711,
        "meta_mean_anomaly": 143.6614,
        "meta_ephemeris_type": 0,
        "meta_classification_type": "U",
        "meta_norad_cat_id": 38552,
        "meta_element_set_no": 999,
        "meta_rev_at_epoch": 4909,
        "meta_bstar": 0,
        "meta_mean_motion_dot": 1.6e-07,
        "meta_mean_motion_ddot": 0,
        "tle_line1": "1 38552U 12035B   25357.04790412  .00000016  00000+0  00000+0 0  9998",
        "tle_line2": "2 38552   4.2513  61.6947 0000731 264.0711 143.6614  1.00276890 49095"
      },
      "geometry": {
        "type": "Point",
        "coordinates": [
          17.891573717402384,
          -2.9473131400755466
        ]
      }
    },
    {
      "type": "Feature",
      "properties": {
        "norad_id": 38771,
        "name": "METOP-B",
        "group": "weather",
        "lat": 81.02741604152435,
        "lon": -27.746061781251996,
        "alt_km": 811.1712719502002,
        "timestamp": "2025-12-23T18:59:31.636756+00:00",
        "meta_object_name": "METOP-B",
        "meta_object_id": "2012-049A",
        "meta_epoch": "2025-12-23T03:22:34.506624",
        "meta_mean_motion": 14.21412228,
        "meta_eccentricity": 0.00032276,
        "meta_inclination": 98.6783,
        "meta_ra_of_asc_node": 46.9224,
        "meta_arg_of_pericenter": 122.2818,
        "meta_mean_anomaly": 237.8672,
        "meta_ephemeris_type": 0,
        "meta_classification_type": "U",
        "meta_norad_cat_id": 38771,
        "meta_element_set_no": 999,
        "meta_rev_at_epoch": 68825,
        "meta_bstar": 8.2537768e-05,
        "meta_mean_motion_dot": 1.37e-06,
        "meta_mean_motion_ddot": 0,
        "tle_line1": "1 38771U 12049A   25357.14067716  .00000137  00000+0  82538-4 0  9996",
        "tle_line2": "2 38771  98.6783  46.9224 0003227 122.2818 237.8672 14.21412228688255"
      },
      "geometry": {
        "type": "Point",
        "coordinates": [
          -27.746061781251996,
          81.02741604152435
        ]
      }
    },
    {
      "type": "Feature",
      "properties": {
        "norad_id": 39216,
        "name": "INSAT-3D",
        "group": "weather",
        "lat": 1.317258426440777,
        "lon": 146.94994997614242,
        "alt_km": 35785.212838928244,
        "timestamp": "2025-12-23T18:59:31.636767+00:00",
        "meta_object_name": "INSAT-3D",
        "meta_object_id": "2013-038B",
        "meta_epoch": "2025-12-22T22:20:24.211392",
        "meta_mean_motion": 1.00275675,
        "meta_eccentricity": 0.00018423,
        "meta_inclination": 1.4696,
        "meta_ra_of_asc_node": 84.8836,
        "meta_arg_of_pericenter": 153.7919,
        "meta_mean_anomaly": 317.6677,
        "meta_ephemeris_type": 0,
        "meta_classification_type": "U",
        "meta_norad_cat_id": 39216,
        "meta_element_set_no": 999,
        "meta_rev_at_epoch": 4531,
        "meta_bstar": 0,
        "meta_mean_motion_dot": -3.18e-06,
        "meta_mean_motion_ddot": 0,
        "tle_line1": "1 39216U 13038B   25356.93083578 -.00000318  00000+0  00000+0 0  9991",
        "tle_line2": "2 39216   1.4696  84.8836 0001842 153.7919 317.6677  1.00275675 45319"
      },
      "geometry": {
        "type": "Point",
        "coordinates": [
          146.94994997614242,
          1.317258426440777
        ]
      }
    },
    {
      "type": "Feature",
      "properties": {
        "norad_id": 39260,
        "name": "FENGYUN 3C",
        "group": "weather",
        "lat": 70.61719806174358,
        "lon": -179.9854339810871,
        "alt_km": 827.1628678731458,
        "timestamp": "2025-12-23T18:59:31.636777+00:00",
        "meta_object_name": "FENGYUN 3C",
        "meta_object_id": "2013-052A",
        "meta_epoch": "2025-12-23T06:36:44.078688",
        "meta_mean_motion": 14.15699265,
        "meta_eccentricity": 0.00148615,
        "meta_inclination": 98.4776,
        "meta_ra_of_asc_node": 334.441,
        "meta_arg_of_pericenter": 165.5323,
        "meta_mean_anomaly": 194.628,
        "meta_ephemeris_type": 0,
        "meta_classification_type": "U",
        "meta_norad_cat_id": 39260,
        "meta_element_set_no": 999,
        "meta_rev_at_epoch": 63367,
        "meta_bstar": 6.7026948e-05,
        "meta_mean_motion_dot": 9e-07,
        "meta_mean_motion_ddot": 0,
        "tle_line1": "1 39260U 13052A   25357.27551017  .00000090  00000+0  67027-4 0  9995",
        "tle_line2": "2 39260  98.4776 334.4410 0014861 165.5323 194.6280 14.15699265633670"
      },
      "geometry": {
        "type": "Point",
        "coordinates": [
          -179.9854339810871,
          70.61719806174358
        ]
      }
    }
  ]
}